{
  "type": "FeatureCollection",
  "features": [
    {
      "type": "Feature",
      "properties": {
        "norad_id": 66767,
        "name": "TRANSPORTER-15DF",
        "group": "last-30-days",
        "lat": 11.602092971503819,
        "lon": 69.35059368116688,
        "alt_km": 511.88464242761165,
        "timestamp": "2025-12-25T07:41:08.449155+00:00",
        "meta_object_name": "TRANSPORTER-15DF",
        "meta_object_id": "2025-276DF",
        "meta_epoch": "2025-12-24T22:08:39.363648",
        "meta_mean_motion": 15.1834776,
        "meta_eccentricity": 0.00021141,
        "meta_inclination": 97.4365,
        "meta_ra_of_asc_node": 70.4964,
        "meta_arg_of_pericenter": 87.8658,
        "meta_mean_anomaly": 272.2818,
        "meta_ephemeris_type": 0,
        "meta_classification_type": "U",
        "meta_norad_cat_id": 66767,
        "meta_element_set_no": 999,
        "meta_rev_at_epoch": 397,
        "meta_bstar": 0.00034335207,
        "meta_mean_motion_dot": 6.986e-05,
        "meta_mean_motion_ddot": 0,
        "tle_line1": "1 66767U 25276DF  25358.92267782  .00006986  00000+0  34335-3 0  9999",
        "tle_line2": "2 66767  97.4365  70.4964 0002114  87.8658 272.2818 15.18347760  3979"
      },
      "geometry": {
        "type": "Point",
        "coordinates": [
          69.35059368116688,
          11.602092971503819
        ]
      }
    },
    {
      "type": "Feature",
      "properties": {
        "norad_id": 66768,
        "name": "TRANSPORTER-15DG",
        "group": "last-30-days",
        "lat": 24.78800180243764,
        "lon": 67.43138697136698,
        "alt_km": 508.6009637473044,
        "timestamp": "2025-12-25T07:41:08.449165+00:00",
        "meta_object_name": "TRANSPORTER-15DG",
        "meta_object_id": "2025-276DG",
        "meta_epoch": "2025-12-24T22:05:13.715232",
        "meta_mean_motion": 15.18550934,
        "meta_eccentricity": 0.00022208,
        "meta_inclination": 97.4352,
        "meta_ra_of_asc_node": 70.4957,
        "meta_arg_of_pericenter": 76.3438,
        "meta_mean_anomaly": 283.8043,
        "meta_ephemeris_type": 0,
        "meta_classification_type": "U",
        "meta_norad_cat_id": 66768,
        "meta_element_set_no": 999,
        "meta_rev_at_epoch": 397,
        "meta_bstar": 0.00042206938,
        "meta_mean_motion_dot": 8.655e-05,
        "meta_mean_motion_ddot": 0,
        "tle_line1": "1 66768U 25276DG  25358.92029763  .00008655  00000+0  42207-3 0  9997",
        "tle_line2": "2 66768  97.4352  70.4957 0002220  76.3438 283.8043 15.18550934  3972"
      },
      "geometry": {
        "type": "Point",
        "coordinates": [
          67.43138697136698,
          24.78800180243764
        ]
      }
    },
    {
      "type": "Feature",
      "properties": {
        "norad_id": 66769,
        "name": "TRANSPORTER-15DH",
        "group": "last-30-days",
        "lat": 18.911513824469726,
        "lon": 68.33959828114112,
        "alt_km": 510.67328510748575,
        "timestamp": "2025-12-25T07:41:08.449175+00:00",
        "meta_object_name": "TRANSPORTER-15DH",
        "meta_object_id": "2025-276DH",
        "meta_epoch": "2025-12-24T20:31:50.819520",
        "meta_mean_motion": 15.18426238,
        "meta_eccentricity": 0.00027351,
        "meta_inclination": 97.4414,
        "meta_ra_of_asc_node": 70.4488,
        "meta_arg_of_pericenter": 103.7158,
        "meta_mean_anomaly": 256.438,
        "meta_ephemeris_type": 0,
        "meta_classification_type": "U",
        "meta_norad_cat_id": 66769,
        "meta_element_set_no": 999,
        "meta_rev_at_epoch": 396,
        "meta_bstar": 0.00029907515,
        "meta_mean_motion_dot": 6.09e-05,
        "meta_mean_motion_ddot": 0,
        "tle_line1": "1 66769U 25276DH  25358.85544930  .00006090  00000+0  29908-3 0  9992",
        "tle_line2": "2 66769  97.4414  70.4488 0002735 103.7158 256.4380 15.18426238  3964"
      },
      "geometry": {
        "type": "Point",
        "coordinates": [
          68.33959828114112,
          18.911513824469726
        ]
      }
    },
    {
      "type": "Feature",
      "properties": {
        "norad_id": 66770,
        "name": "TRANSPORTER-15DJ",
        "group": "last-30-days",
        "lat": 20.545068899420666,
        "lon": 68.10866922148625,
        "alt_km": 510.9470254760208,
        "timestamp": "2025-12-25T07:41:08.449185+00:00",
        "meta_object_name": "TRANSPORTER-15DJ",
        "meta_object_id": "2025-276DJ",
        "meta_epoch": "2025-12-24T20:31:24.174624",
        "meta_mean_motion": 15.18403901,
        "meta_eccentricity": 0.0003391,
        "meta_inclination": 97.4444,
        "meta_ra_of_asc_node": 70.4598,
        "meta_arg_of_pericenter": 118.5223,
        "meta_mean_anomaly": 241.6353,
        "meta_ephemeris_type": 0,
        "meta_classification_type": "U",
        "meta_norad_cat_id": 66770,
        "meta_element_set_no": 999,
        "meta_rev_at_epoch": 396,
        "meta_bstar": 0.00056072132,
        "meta_mean_motion_dot": 0.00011477,
        "meta_mean_motion_ddot": 0,
        "tle_line1": "1 66770U 25276DJ  25358.85514091  .00011477  00000+0  56072-3 0  9996",
        "tle_line2": "2 66770  97.4444  70.4598 0003391 118.5223 241.6353 15.18403901  3965"
      },
      "geometry": {
        "type": "Point",
        "coordinates": [
          68.10866922148625,
          20.545068899420666
        ]
      }
    },
    {
      "type": "Feature",
      "properties": {
        "norad_id": 66771,
        "name": "TRANSPORTER-15DK",
        "group": "last-30-days",
        "lat": 23.59177093627744,
        "lon": 67.64291705812006,
        "alt_km": 509.76180211862993,
        "timestamp": "2025-12-25T07:41:08.449196+00:00",
        "meta_object_name": "TRANSPORTER-15DK",
        "meta_object_id": "2025-276DK",
        "meta_epoch": "2025-12-24T20:30:38.024064",
        "meta_mean_motion": 15.18495922,
        "meta_eccentricity": 0.00030998,
        "meta_inclination": 97.4438,
        "meta_ra_of_asc_node": 70.4579,
        "meta_arg_of_pericenter": 110.844,
        "meta_mean_anomaly": 249.3127,
        "meta_ephemeris_type": 0,
        "meta_classification_type": "U",
        "meta_norad_cat_id": 66771,
        "meta_element_set_no": 999,
        "meta_rev_at_epoch": 396,
        "meta_bstar": 0.00053604536,
        "meta_mean_motion_dot": 0.00010997,
        "meta_mean_motion_ddot": 0,
        "tle_line1": "1 66771U 25276DK  25358.85460676  .00010997  00000+0  53605-3 0  9991",
        "tle_line2": "2 66771  97.4438  70.4579 0003099 110.8440 249.3127 15.18495922  3967"
      },
      "geometry": {
        "type": "Point",
        "coordinates": [
          67.64291705812006,
          23.59177093627744
        ]
      }
    },
    {
      "type": "Feature",
      "properties": {
        "norad_id": 66772,
        "name": "TRANSPORTER-15DL",
        "group": "last-30-days",
        "lat": 38.06968667201279,
        "lon": 65.04200544864565,
        "alt_km": 505.8909801279451,
        "timestamp": "2025-12-25T07:41:08.449207+00:00",
        "meta_object_name": "TRANSPORTER-15DL",
        "meta_object_id": "2025-276DL",
        "meta_epoch": "2025-12-24T20:26:52.654848",
        "meta_mean_motion": 15.18717443,
        "meta_eccentricity": 0.00029979,
        "meta_inclination": 97.443,
        "meta_ra_of_asc_node": 70.4581,
        "meta_arg_of_pericenter": 99.5119,
        "meta_mean_anomaly": 260.6454,
        "meta_ephemeris_type": 0,
        "meta_classification_type": "U",
        "meta_norad_cat_id": 66772,
        "meta_element_set_no": 999,
        "meta_rev_at_epoch": 396,
        "meta_bstar": 0.00055131722,
        "meta_mean_motion_dot": 0.00011385,
        "meta_mean_motion_ddot": 0,
        "tle_line1": "1 66772U 25276DL  25358.85199832  .00011385  00000+0  55132-3 0  9994",
        "tle_line2": "2 66772  97.4430  70.4581 0002997  99.5119 260.6454 15.18717443  3969"
      },
      "geometry": {
        "type": "Point",
        "coordinates": [
          65.04200544864565,
          38.06968667201279
        ]
      }
    },
    {
      "type": "Feature",
      "properties": {
        "norad_id": 66773,
        "name": "TRANSPORTER-15DM",
        "group": "last-30-days",
        "lat": 30.245300542032112,
        "lon": 66.54339998066787,
        "alt_km": 507.82555142252204,
        "timestamp": "2025-12-25T07:41:08.449217+00:00",
        "meta_object_name": "TRANSPORTER-15DM",
        "meta_object_id": "2025-276DM",
        "meta_epoch": "2025-12-24T22:03:46.415808",
        "meta_mean_motion": 15.18546864,
        "meta_eccentricity": 0.00031993,
        "meta_inclination": 97.4426,
        "meta_ra_of_asc_node": 70.5202,
        "meta_arg_of_pericenter": 97.9466,
        "meta_mean_anomaly": 262.2131,
        "meta_ephemeris_type": 0,
        "meta_classification_type": "U",
        "meta_norad_cat_id": 66773,
        "meta_element_set_no": 999,
        "meta_rev_at_epoch": 397,
        "meta_bstar": 0.00030987388,
        "meta_mean_motion_dot": 6.334e-05,
        "meta_mean_motion_ddot": 0,
        "tle_line1": "1 66773U 25276DM  25358.91928722  .00006334  00000+0  30987-3 0  9999",
        "tle_line2": "2 66773  97.4426  70.5202 0003199  97.9466 262.2131 15.18546864  3976"
      },
      "geometry": {
        "type": "Point",
        "coordinates": [
          66.54339998066787,
          30.245300542032112
        ]
      }
    }
  ]
}